[{"OBJECT_NAME":"NAPA-2","OBJECT_ID":"2021-059CN","EPOCH":"2026-03-09T23:29:49.102656","MEAN_MOTION":15.70952391,"ECCENTRICITY":0.00036606,"INCLINATION":97.6849,"RA_OF_ASC_NODE":256.4978,"ARG_OF_PERICENTER":316.466,"MEAN_ANOMALY":43.6312,"EPHEMERIS_TYPE":0,"CLASSIFICATION_TYPE":"U","NORAD_CAT_ID":48963,"ELEMENT_SET_NO":999,"REV_AT_EPOCH":26212,"BSTAR":0.00074486022,"MEAN_MOTION_DOT":0.00093758,"MEAN_MOTION_DDOT":0},{"OBJECT_NAME":"STARLINK-11083 [DTC]","OBJECT_ID":"2024-065D","EPOCH":"2026-03-09T10:41:21.591456","MEAN_MOTION":15.69711408,"ECCENTRICITY":0.00010142,"INCLINATION":53.1581,"RA_OF_ASC_NODE":95.1677,"ARG_OF_PERICENTER":92.0634,"MEAN_ANOMALY":268.05,"EPHEMERIS_TYPE":0,"CLASSIFICATION_TYPE":"U","NORAD_CAT_ID":59424,"ELEMENT_SET_NO":999,"REV_AT_EPOCH":11143,"BSTAR":7.582858e-6,"MEAN_MOTION_DOT":3.3e-6,"MEAN_MOTION_DDOT":0}]
